{"fetched_at":"2026-07-07T07:58:29.608Z","source":"https://celestrak.org/NORAD/elements/gp.php?NAME=FIREFLY&FORMAT=JSON","constellation":"pixxel","records":[{"OBJECT_NAME":"FIREFLY-1","OBJECT_ID":"2025-009CW","EPOCH":"2026-07-06T19:13:33.501216","CLASSIFICATION_TYPE":"U","MEAN_MOTION":14.92726586,"ECCENTRICITY":0.0002213,"INCLINATION":97.7064,"RA_OF_ASC_NODE":265.5251,"ARG_OF_PERICENTER":267.3376,"MEAN_ANOMALY":92.759,"EPHEMERIS_TYPE":0,"NORAD_CAT_ID":62701,"ELEMENT_SET_NO":999,"REV_AT_EPOCH":8024,"BSTAR":0.0001083,"MEAN_MOTION_DOT":0.00001062,"MEAN_MOTION_DDOT":0},{"OBJECT_NAME":"FIREFLY-2","OBJECT_ID":"2025-009CZ","EPOCH":"2026-07-06T18:41:42.931968","CLASSIFICATION_TYPE":"U","MEAN_MOTION":14.92722837,"ECCENTRICITY":0.0007158,"INCLINATION":97.7021,"RA_OF_ASC_NODE":265.2779,"ARG_OF_PERICENTER":29.6431,"MEAN_ANOMALY":330.5192,"EPHEMERIS_TYPE":0,"NORAD_CAT_ID":62704,"ELEMENT_SET_NO":999,"REV_AT_EPOCH":8024,"BSTAR":0.00013234,"MEAN_MOTION_DOT":0.00001311,"MEAN_MOTION_DDOT":0},{"OBJECT_NAME":"FIREFLY-3","OBJECT_ID":"2025-009DF","EPOCH":"2026-07-06T19:47:14.722944","CLASSIFICATION_TYPE":"U","MEAN_MOTION":14.92786503,"ECCENTRICITY":0.0004905,"INCLINATION":97.7055,"RA_OF_ASC_NODE":265.578,"ARG_OF_PERICENTER":92.2984,"MEAN_ANOMALY":267.8798,"EPHEMERIS_TYPE":0,"NORAD_CAT_ID":62710,"ELEMENT_SET_NO":999,"REV_AT_EPOCH":8026,"BSTAR":0.00015389,"MEAN_MOTION_DOT":0.00001536,"MEAN_MOTION_DDOT":0}]}
