FIREFLY-1               
1 62701U 25009CW  26187.80108219  .00001062  00000+0  10830-3 0  9998
2 62701  97.7064 265.5251 0002213 267.3376  92.7590 14.92726586 80245
FIREFLY-2               
1 62704U 25009CZ  26187.77896912  .00001311  00000+0  13234-3 0  9999
2 62704  97.7021 265.2779 0007158  29.6431 330.5192 14.92722837 80243
FIREFLY-3               
1 62710U 25009DF  26187.82447596  .00001536  00000+0  15389-3 0  9994
2 62710  97.7055 265.5780 0004905  92.2984 267.8798 14.92786503 80264
